{"type": "FeatureCollection", "features": [ {"type": "Feature", "properties": {"norad_id": 58662, "name": "TIANMU-1 21", "group": "weather", "lat": -71.48485713656531, "lon": -113.14745099176099, "alt_km": 476.88951851453294, "timestamp": "2025-12-02T10:50:46.915840+00:00", "meta": {"OBJECT_NAME": "TIANMU-1 21", "OBJECT_ID": "2023-208C", "EPOCH": "2025-12-02T05:02:20.887872", "MEAN_MOTION": 15.31196492, "ECCENTRICITY": 0.0006029, "INCLINATION": 97.4374, "RA_OF_ASC_NODE": 89.5693, "ARG_OF_PERICENTER": 304.0058, "MEAN_ANOMALY": 56.061, "EPHEMERIS_TYPE": 0, "CLASSIFICATION_TYPE": "U", "NORAD_CAT_ID": 58662, "ELEMENT_SET_NO": 999, "REV_AT_EPOCH": 10738, "BSTAR": 0.00046892, "MEAN_MOTION_DOT": 0.0001407, "MEAN_MOTION_DDOT": 0}, "tle": {"line1": "1 58662U 23208C   25336.20996398  .00014070  00000+0  46892-3 0  9990", "line2": "2 58662  97.4374  89.5693 0006029 304.0058  56.0610 15.31196492107388"}}, "geometry": {"type": "Point", "coordinates": [-113.14745099176099, -71.48485713656531]}}, {"type": "Feature", "properties": {"norad_id": 58663, "name": "TIANMU-1 22", "group": "weather", "lat": -39.75929678063566, "lon": 93.81539535029995, "alt_km": 488.28102117037815, "timestamp": "2025-12-02T10:50:46.915850+00:00", "meta": {"OBJECT_NAME": "TIANMU-1 22", "OBJECT_ID": "2023-208D", "EPOCH": "2025-12-02T04:43:56.076384", "MEAN_MOTION": 15.27320205, "ECCENTRICITY": 0.0003167, "INCLINATION": 97.4383, "RA_OF_ASC_NODE": 87.3213, "ARG_OF_PERICENTER": 335.5261, "MEAN_ANOMALY": 24.5827, "EPHEMERIS_TYPE": 0, "CLASSIFICATION_TYPE": "U", "NORAD_CAT_ID": 58663, "ELEMENT_SET_NO": 999, "REV_AT_EPOCH": 10722, "BSTAR": 0.00043207, "MEAN_MOTION_DOT": 0.00011495, "MEAN_MOTION_DDOT": 0}, "tle": {"line1": "1 58663U 23208D   25336.19717681  .00011495  00000+0  43207-3 0  9990", "line2": "2 58663  97.4383  87.3213 0003167 335.5261  24.5827 15.27320205107227"}}, "geometry": {"type": "Point", "coordinates": [93.81539535029995, -39.75929678063566]}}, {"type": "Feature", "properties": {"norad_id": 58700, "name": "TIANMU-1 15", "group": "weather", "lat": -16.35890993619382, "lon": -24.246440884384523, "alt_km": 500.5929426890989, "timestamp": "2025-12-02T10:50:46.915861+00:00", "meta": {"OBJECT_NAME": "TIANMU-1 15", "OBJECT_ID": "2024-004A", "EPOCH": "2025-12-02T05:15:40.551840", "MEAN_MOTION": 15.24456414, "ECCENTRICITY": 0.0005886, "INCLINATION": 97.4629, "RA_OF_ASC_NODE": 157.727, "ARG_OF_PERICENTER": 340.3975, "MEAN_ANOMALY": 19.7035, "EPHEMERIS_TYPE": 0, "CLASSIFICATION_TYPE": "U", "NORAD_CAT_ID": 58700, "ELEMENT_SET_NO": 999, "REV_AT_EPOCH": 10574, "BSTAR": 0.00033893, "MEAN_MOTION_DOT": 8.255e-05, "MEAN_MOTION_DDOT": 0}, "tle": {"line1": "1 58700U 24004A   25336.21921935  .00008255  00000+0  33893-3 0  9999", "line2": "2 58700  97.4629 157.7270 0005886 340.3975  19.7035 15.24456414105744"}}, "geometry": {"type": "Point", "coordinates": [-24.246440884384523, -16.35890993619382]}}, {"type": "Feature", "properties": {"norad_id": 58701, "name": "TIANMU-1 16", "group": "weather", "lat": -71.57086108027993, "lon": -179.4956784790949, "alt_km": 498.31670178304375, "timestamp": "2025-12-02T10:50:46.915870+00:00", "meta": {"OBJECT_NAME": "TIANMU-1 16", "OBJECT_ID": "2024-004B", "EPOCH": "2025-11-28T17:21:14.562144", "MEAN_MOTION": 15.24146454, "ECCENTRICITY": 0.00054689, "INCLINATION": 97.457, "RA_OF_ASC_NODE": 153.6495, "ARG_OF_PERICENTER": 351.9748, "MEAN_ANOMALY": 8.1401, "EPHEMERIS_TYPE": 0, "CLASSIFICATION_TYPE": "U", "NORAD_CAT_ID": 58701, "ELEMENT_SET_NO": 999, "REV_AT_EPOCH": 10521, "BSTAR": 5.4123761e-05, "MEAN_MOTION_DOT": 1.245e-05, "MEAN_MOTION_DDOT": 0}, "tle": {"line1": "1 58701U 24004B   25332.72308521  .00001245  00000+0  54124-4 0  9995", "line2": "2 58701  97.4570 153.6495 0005468 351.9748   8.1401 15.24146454105217"}}, "geometry": {"type": "Point", "coordinates": [-179.4956784790949, -71.57086108027993]}}, {"type": "Feature", "properties": {"norad_id": 58702, "name": "TIANMU-1 17", "group": "weather", "lat": 10.052578822231169, "lon": 156.43311889559206, "alt_km": 492.0136114707184, "timestamp": "2025-12-02T10:50:46.915880+00:00", "meta": {"OBJECT_NAME": "TIANMU-1 17", "OBJECT_ID": "2024-004C", "EPOCH": "2025-12-02T04:29:59.496288", "MEAN_MOTION": 15.24254271, "ECCENTRICITY": 0.0004421, "INCLINATION": 97.4601, "RA_OF_ASC_NODE": 157.501, "ARG_OF_PERICENTER": 343.4234, "MEAN_ANOMALY": 16.6858, "EPHEMERIS_TYPE": 0, "CLASSIFICATION_TYPE": "U", "NORAD_CAT_ID": 58702, "ELEMENT_SET_NO": 999, "REV_AT_EPOCH": 10573, "BSTAR": 0.00036749, "MEAN_MOTION_DOT": 8.902e-05, "MEAN_MOTION_DDOT": 0}, "tle": {"line1": "1 58702U 24004C   25336.18749417  .00008902  00000+0  36749-3 0  9992", "line2": "2 58702  97.4601 157.5010 0004421 343.4234  16.6858 15.24254271105737"}}, "geometry": {"type": "Point", "coordinates": [156.43311889559206, 10.052578822231169]}}, {"type": "Feature", "properties": {"norad_id": 58703, "name": "TIANMU-1 18", "group": "weather", "lat": 75.73773583637495, "lon": 8.995981301334197, "alt_km": 487.0901061430677, "timestamp": "2025-12-02T10:50:46.915901+00:00", "meta": {"OBJECT_NAME": "TIANMU-1 18", "OBJECT_ID": "2024-004D", "EPOCH": "2025-12-02T04:05:51.682848", "MEAN_MOTION": 15.24247227, "ECCENTRICITY": 0.0003783, "INCLINATION": 97.4619, "RA_OF_ASC_NODE": 157.6773, "ARG_OF_PERICENTER": 345.1819, "MEAN_ANOMALY": 14.9307, "EPHEMERIS_TYPE": 0, "CLASSIFICATION_TYPE": "U", "NORAD_CAT_ID": 58703, "ELEMENT_SET_NO": 999, "REV_AT_EPOCH": 10573, "BSTAR": 0.00033926, "MEAN_MOTION_DOT": 8.209e-05, "MEAN_MOTION_DDOT": 0}, "tle": {"line1": "1 58703U 24004D   25336.17073707  .00008209  00000+0  33926-3 0  9998", "line2": "2 58703  97.4619 157.6773 0003783 345.1819  14.9307 15.24247227105735"}}, "geometry": {"type": "Point", "coordinates": [8.995981301334197, 75.73773583637495]}}, {"type": "Feature", "properties": {"norad_id": 58990, "name": "INSAT-3DS", "group": "weather", "lat": 0.015109122471075574, "lon": -43.64597774189996, "alt_km": 35783.61048237017, "timestamp": "2025-12-02T10:50:46.915913+00:00", "meta": {"OBJECT_NAME": "INSAT-3DS", "OBJECT_ID": "2024-033A", "EPOCH": "2025-12-02T02:11:22.196832", "MEAN_MOTION": 1.00269802, "ECCENTRICITY": 0.000158, "INCLINATION": 0.0134, "RA_OF_ASC_NODE": 265.382, "ARG_OF_PERICENTER": 348.0562, "MEAN_ANOMALY": 292.7221, "EPHEMERIS_TYPE": 0, "CLASSIFICATION_TYPE": "U", "NORAD_CAT_ID": 58990, "ELEMENT_SET_NO": 999, "REV_AT_EPOCH": 4509, "BSTAR": 0, "MEAN_MOTION_DOT": -1.35e-06, "MEAN_MOTION_DDOT": 0}, "tle": {"line1": "1 58990U 24033A   25336.09122913 -.00000135  00000+0  00000+0 0  9997", "line2": "2 58990   0.0134 265.3820 0001580 348.0562 292.7221  1.00269802 45090"}}, "geometry": {"type": "Point", "coordinates": [-43.64597774189996, 0.015109122471075574]}}, {"type": "Feature", "properties": {"norad_id": 59051, "name": "METEOR-M2 4", "group": "weather", "lat": 80.7416006168444, "lon": -135.96540661267392, "alt_km": 807.0505633699368, "timestamp": "2025-12-02T10:50:46.915944+00:00", "meta": {"OBJECT_NAME": "METEOR-M2 4", "OBJECT_ID": "2024-039A", "EPOCH": "2025-12-02T03:41:15.168192", "MEAN_MOTION": 14.22398569, "ECCENTRICITY": 0.00076, "INCLINATION": 98.6752, "RA_OF_ASC_NODE": 293.2293, "ARG_OF_PERICENTER": 27.9049, "MEAN_ANOMALY": 332.2535, "EPHEMERIS_TYPE": 0, "CLASSIFICATION_TYPE": "U", "NORAD_CAT_ID": 59051, "ELEMENT_SET_NO": 999, "REV_AT_EPOCH": 9125, "BSTAR": 4.3646e-05, "MEAN_MOTION_DOT": 5.4e-07, "MEAN_MOTION_DDOT": 0}, "tle": {"line1": "1 59051U 24039A   25336.15364778  .00000054  00000+0  43646-4 0  9993", "line2": "2 59051  98.6752 293.2293 0007600  27.9049 332.2535 14.22398569 91252"}}, "geometry": {"type": "Point", "coordinates": [-135.96540661267392, 80.7416006168444]}}, {"type": "Feature", "properties": {"norad_id": 60133, "name": "GOES 19", "group": "weather", "lat": 0.0019194103637541877, "lon": 159.03654132716733, "alt_km": 35790.0867278667, "timestamp": "2025-12-02T10:50:46.915958+00:00", "meta": {"OBJECT_NAME": "GOES 19", "OBJECT_ID": "2024-119A", "EPOCH": "2025-12-02T01:26:33.987840", "MEAN_MOTION": 1.00271424, "ECCENTRICITY": 0.0001237, "INCLINATION": 0.0048, "RA_OF_ASC_NODE": 192.1354, "ARG_OF_PERICENTER": 105.0712, "MEAN_ANOMALY": 80.4283, "EPHEMERIS_TYPE": 0, "CLASSIFICATION_TYPE": "U", "NORAD_CAT_ID": 60133, "ELEMENT_SET_NO": 999, "REV_AT_EPOCH": 498, "BSTAR": 0, "MEAN_MOTION_DOT": -2.27e-06, "MEAN_MOTION_DDOT": 0}, "tle": {"line1": "1 60133U 24119A   25336.06011560 -.00000227  00000+0  00000+0 0  9998", "line2": "2 60133   0.0048 192.1354 0001237 105.0712  80.4283  1.00271424  4988"}}, "geometry": {"type": "Point", "coordinates": [159.03654132716733, 0.0019194103637541877]}}, {"type": "Feature", "properties": {"norad_id": 65815, "name": "FENGYUN 3H", "group": "weather", "lat": 56.910433559914395, "lon": -97.2541292764634, "alt_km": 819.7309207969456, "timestamp": "2025-12-02T10:50:46.915974+00:00", "meta": {"OBJECT_NAME": "FENGYUN 3H", "OBJECT_ID": "2025-219A", "EPOCH": "2025-12-02T02:07:06.300768", "MEAN_MOTION": 14.19899654, "ECCENTRICITY": 6.57e-05, "INCLINATION": 98.6568, "RA_OF_ASC_NODE": 275.9107, "ARG_OF_PERICENTER": 68.5837, "MEAN_ANOMALY": 291.541, "EPHEMERIS_TYPE": 0, "CLASSIFICATION_TYPE": "U", "NORAD_CAT_ID": 65815, "ELEMENT_SET_NO": 999, "REV_AT_EPOCH": 941, "BSTAR": 7.2183e-05, "MEAN_MOTION_DOT": 1.1e-06, "MEAN_MOTION_DDOT": 0}, "tle": {"line1": "1 65815U 25219A   25336.08826737  .00000110  00000+0  72183-4 0  9990", "line2": "2 65815  98.6568 275.9107 0000657  68.5837 291.5410 14.19899654  9417"}}, "geometry": {"type": "Point", "coordinates": [-97.2541292764634, 56.910433559914395]}}]}